NORAD_CAT_ID,OBJECT_NAME,OBJECT_TYPE,EPOCH,MEAN_MOTION,ECCENTRICITY,INCLINATION,RA_OF_ASC_NODE,ARG_OF_PERICENTER,MEAN_ANOMALY,BSTAR,MEAN_MOTION_DOT,MEAN_MOTION_DDOT,TLE_LINE0,TLE_LINE1,TLE_LINE2,SEMIMAJOR_AXIS,PERIOD,APOGEE,PERIGEE,DECAYED
53012.0,STARLINK-4271,PAYLOAD,2023-09-04 06:57:49,15.08832166,0.0001376,53.2154,252.4878,89.7188,270.3961,-4.045e-05,-9.31e-06,0.0,0 STARLINK-4271,1 53012U 22076AC  23247.29015951 -.00000931  00000-0 -40450-4 0  9990,2 53012  53.2154 252.4878 0001376  89.7188 270.3961 15.08832166 64825,6917.904,95.438,540.721,538.817,0.0
53012.0,STARLINK-4271,PAYLOAD,2023-09-05 00:27:03,15.08839636,0.000142,53.2164,249.2176,85.5033,274.6121,3.6689e-05,2.96e-06,0.0,0 STARLINK-4271,1 53012U 22076AC  23248.01879373  .00000296  00000-0  36689-4 0  9998,2 53012  53.2164 249.2176 0001420  85.5033 274.6121 15.08839636 64930,6917.882,95.438,540.729,538.764,0.0
53012.0,STARLINK-4271,PAYLOAD,2023-09-06 06:39:23,15.0883916,0.000144,53.2164,243.5668,86.8076,273.3081,0.00012872,1.761e-05,0.0,0 STARLINK-4271,1 53012U 22076AC  23249.27735326  .00001761  00000-0  12872-3 0  9991,2 53012  53.2164 243.5668 0001440  86.8076 273.3081 15.08839160 65121,6917.883,95.438,540.744,538.752,0.0
53012.0,STARLINK-4271,PAYLOAD,2023-09-07 06:30:10,15.08838967,0.0001534,53.2175,239.1086,93.7321,266.3846,1.1207e-05,-1.1e-06,0.0,0 STARLINK-4271,1 53012U 22076AC  23250.27095811 -.00000110  00000-0  11207-4 0  9991,2 53012  53.2175 239.1086 0001534  93.7321 266.3846 15.08838967 65273,6917.884,95.438,540.81,538.687,0.0
53012.0,STARLINK-4271,PAYLOAD,2023-09-08 09:31:44,15.08840608,0.0001435,53.2169,234.0522,89.8424,270.2733,2.7025e-05,1.42e-06,0.0,0 STARLINK-4271,1 53012U 22076AC  23251.39703832  .00000142  00000-0  27025-4 0  9993,2 53012  53.2169 234.0522 0001435  89.8424 270.2733 15.08840608 65448,6917.879,95.438,540.736,538.751,0.0
53012.0,STARLINK-4271,PAYLOAD,2023-09-08 15:53:16,15.08835278,0.0001431,53.2169,232.8625,89.4615,270.6541,3.6036e-05,2.86e-06,0.0,0 STARLINK-4271,1 53012U 22076AC  23251.66200190  .00000286  00000-0  36036-4 0  9993,2 53012  53.2169 232.8625 0001431  89.4615 270.6541 15.08835278 65013,6917.895,95.438,540.75,538.77,0.0
53012.0,STARLINK-4271,PAYLOAD,2023-09-09 07:47:07,15.08844655,0.0001407,53.2167,229.8882,90.7707,269.3446,9.9711e-05,1.3e-05,0.0,0 STARLINK-4271,1 53012U 22076AC  23252.32439463  .00001300  00000-0  99711-4 0  9991,2 53012  53.2167 229.8882 0001407  90.7707 269.3446 15.08844655 65111,6917.866,95.437,540.705,538.758,0.0
53012.0,STARLINK-4271,PAYLOAD,2023-09-09 23:41:00,15.08802833,0.0001489,53.2174,226.9116,93.7688,266.3474,0.00052832,8.122e-05,0.0,0 STARLINK-4271,1 53012U 22076AC  23252.98680617  .00008122  00000-0  52832-3 0  9993,2 53012  53.2174 226.9116 0001489  93.7688 266.3474 15.08802833 65680,6917.994,95.44,540.889,538.829,0.0
53012.0,STARLINK-4271,PAYLOAD,2023-09-10 06:02:31,15.08842564,0.0001427,53.2169,225.7249,93.1907,266.9249,8.8592e-05,1.122e-05,0.0,0 STARLINK-4271,1 53012U 22076AC  23253.25175740  .00001122  00000-0  88592-4 0  9996,2 53012  53.2169 225.7249 0001427  93.1907 266.9249 15.08842564 65724,6917.873,95.437,540.725,538.75,0.0
53012.0,STARLINK-4271,PAYLOAD,2023-09-10 15:34:51,15.08835333,0.0001416,53.2165,223.9389,91.0985,269.0169,1.6316e-05,-2.8e-07,0.0,0 STARLINK-4271,1 53012U 22076AC  23253.64920443 -.00000028  00000-0  16316-4 0  9997,2 53012  53.2165 223.9389 0001416  91.0985 269.0169 15.08835333 65783,6917.895,95.438,540.739,538.78,0.0
53012.0,STARLINK-4271,PAYLOAD,2023-09-11 04:17:56,15.08838628,0.000144,53.2166,221.5613,95.1781,264.9376,-3.8061e-05,-8.94e-06,0.0,0 STARLINK-4271,1 53012U 22076AC  23254.17912554 -.00000894  00000-0 -38061-4 0  9993,2 53012  53.2166 221.5613 0001440  95.1781 264.9376 15.08838628 65395,6917.885,95.438,540.746,538.753,0.0
53012.0,STARLINK-4271,PAYLOAD,2023-09-12 02:33:19,15.08846892,0.000147,53.2167,217.3982,93.8659,266.2501,7.606e-05,9.23e-06,0.0,0 STARLINK-4271,1 53012U 22076AC  23255.10647730  .00000923  00000-0  76060-4 0  9990,2 53012  53.2167 217.3982 0001470  93.8659 266.2501 15.08846892 66006,6917.859,95.437,540.741,538.707,0.0
53012.0,STARLINK-4271,PAYLOAD,2023-09-12 04:08:42,15.08847697,0.0001468,53.2167,217.1006,94.9804,265.1356,8.3898e-05,1.048e-05,0.0,0 STARLINK-4271,1 53012U 22076AC  23255.17271640  .00001048  00000-0  83898-4 0  9996,2 53012  53.2167 217.1006 0001468  94.9804 265.1356 15.08847697 65540,6917.857,95.437,540.737,538.706,0.0
53012.0,STARLINK-4271,PAYLOAD,2023-09-13 02:24:06,15.08841724,0.000147,53.2167,212.937,96.1109,264.0051,0.00012476,1.698e-05,0.0,0 STARLINK-4271,1 53012U 22076AC  23256.10007925  .00001698  00000-0  12476-3 0  9997,2 53012  53.2167 212.9370 0001470  96.1109 264.0051 15.08841724 66155,6917.875,95.437,540.757,538.723,0.0
53012.0,STARLINK-4271,PAYLOAD,2023-09-13 03:59:29,15.0884464,0.0001531,53.2172,212.6379,101.9576,258.1588,0.00018715,2.692e-05,0.0,0 STARLINK-4271,1 53012U 22076AC  23256.16631630  .00002692  00000-0  18715-3 0  9996,2 53012  53.2172 212.6379 0001531 101.9576 258.1588 15.08844640 65695,6917.866,95.437,540.79,538.672,0.0
53012.0,STARLINK-4271,PAYLOAD,2023-09-13 21:28:45,15.08837695,0.000128,53.2168,209.3688,97.0281,263.0856,-2.2442e-05,-6.45e-06,0.0,0 STARLINK-4271,1 53012U 22076AC  23256.89496710 -.00000645  00000-0 -22442-4 0  9995,2 53012  53.2168 209.3688 0001280  97.0281 263.0856 15.08837695 65803,6917.887,95.438,540.638,538.867,0.0
53012.0,STARLINK-4271,PAYLOAD,2023-09-14 02:14:54,15.0883523,0.0001722,53.2171,208.4766,114.3949,245.7223,-5.2787e-05,-1.128e-05,0.0,0 STARLINK-4271,1 53012U 22076AC  23257.09368905 -.00001128  00000-0 -52787-4 0  9994,2 53012  53.2171 208.4766 0001722 114.3949 245.7223 15.08835230 66303,6917.895,95.438,540.951,538.569,0.0
53012.0,STARLINK-4271,PAYLOAD,2023-09-14 07:01:04,15.08835433,0.0001454,53.217,207.5843,97.4361,262.6796,-5.5754e-05,-1.175e-05,0.0,0 STARLINK-4271,1 53012U 22076AC  23257.29241015 -.00001175  00000-0 -55754-4 0  9997,2 53012  53.2170 207.5843 0001454  97.4361 262.6796 15.08835433 65867,6917.894,95.438,540.765,538.753,0.0
53012.0,STARLINK-4271,PAYLOAD,2023-09-15 03:41:04,15.08844095,0.0001521,53.2173,203.7212,108.9586,251.1571,3.6306e-05,2.9e-06,0.0,0 STARLINK-4271,1 53012U 22076AC  23258.15352458  .00000290  00000-0  36306-4 0  9994,2 53012  53.2173 203.7212 0001521 108.9586 251.1571 15.08844095 66465,6917.868,95.437,540.785,538.681,0.0
53012.0,STARLINK-4271,PAYLOAD,2023-09-16 01:56:28,15.08825758,0.0001351,53.217,199.5584,104.7785,255.3357,0.00034926,5.273e-05,0.0,0 STARLINK-4271,1 53012U 22076AC  23259.08088784  .00005273  00000-0  34926-3 0  9996,2 53012  53.2170 199.5584 0001351 104.7785 255.3357 15.08825758 66601,6917.924,95.438,540.724,538.854,0.0
53012.0,STARLINK-4271,PAYLOAD,2023-09-16 05:07:14,15.08843404,0.0001435,53.2173,198.9642,104.8344,255.2807,0.00024909,3.679e-05,0.0,0 STARLINK-4271,1 53012U 22076AC  23259.21336090  .00003679  00000-0  24909-3 0  9995,2 53012  53.2173 198.9642 0001435 104.8344 255.2807 15.08843404 66626,6917.87,95.437,540.728,538.742,0.0
53012.0,STARLINK-4271,PAYLOAD,2023-09-17 01:47:16,15.08839874,0.000158,53.2178,195.0987,117.1185,242.9969,1.5081e-05,-4.8e-07,0.0,0 STARLINK-4271,1 53012U 22076AC  23260.07449082 -.00000048  00000-0  15081-4 0  9997,2 53012  53.2178 195.0987 0001580 117.1185 242.9969 15.08839874 66754,6917.881,95.438,540.839,538.653,0.0
53012.0,STARLINK-4271,PAYLOAD,2023-09-17 03:22:39,15.08841348,0.0001407,53.2177,194.801,102.7554,257.3596,3.3425e-05,2.44e-06,0.0,0 STARLINK-4271,1 53012U 22076AC  23260.14073077  .00000244  00000-0  33425-4 0  9991,2 53012  53.2177 194.8010 0001407 102.7554 257.3596 15.08841348 66299,6917.876,95.437,540.715,538.768,0.0
53012.0,STARLINK-4271,PAYLOAD,2023-09-18 01:38:02,15.08853919,0.00013,53.2173,190.6366,95.6991,264.4149,6.7022e-05,7.79e-06,0.0,0 STARLINK-4271,1 53012U 22076AC  23261.06808026  .00000779  00000-0  67022-4 0  9996,2 53012  53.2173 190.6366 0001300  95.6991 264.4149 15.08853919 66908,6917.838,95.437,540.602,538.804,0.0
53012.0,STARLINK-4271,PAYLOAD,2023-09-18 03:13:24,15.08859035,0.0001413,53.2177,190.339,96.5839,263.5314,0.00010823,1.436e-05,0.0,0 STARLINK-4271,1 53012U 22076AC  23261.13431588  .00001436  00000-0  10823-3 0  9996,2 53012  53.2177 190.3390 0001413  96.5839 263.5314 15.08859035 66440,6917.822,95.436,540.665,538.71,0.0
53012.0,STARLINK-4271,PAYLOAD,2023-09-19 01:28:49,15.08843858,0.0001552,53.2184,186.1747,92.6417,267.4753,0.0001124,1.501e-05,0.0,0 STARLINK-4271,1 53012U 22076AC  23262.06168584  .00001501  00000-0  11240-3 0  9999,2 53012  53.2184 186.1747 0001552  92.6417 267.4753 15.08843858 67054,6917.869,95.437,540.807,538.66,0.0
53012.0,STARLINK-4271,PAYLOAD,2023-09-20 04:30:22,15.08851144,0.0001594,53.2165,181.118,97.8848,262.2325,0.00010502,1.384e-05,0.0,0 STARLINK-4271,1 53012U 22076AC  23263.18775960  .00001384  00000-0  10502-3 0  9994,2 53012  53.2165 181.1180 0001594  97.8848 262.2325 15.08851144 67224,6917.846,95.437,540.814,538.609,0.0
53012.0,STARLINK-4271,PAYLOAD,2023-09-20 21:59:38,15.08826209,0.0001349,53.2161,177.8454,93.7669,266.3477,-0.00012458,-2.269e-05,0.0,0 STARLINK-4271,1 53012U 22076AC  23263.91641630 -.00002269  00000-0 -12458-3 0  9998,2 53012  53.2161 177.8454 0001349  93.7669 266.3477 15.08826209 66866,6917.923,95.438,540.721,538.854,0.0
53012.0,STARLINK-4271,PAYLOAD,2023-09-21 01:10:24,15.08823495,0.000137,53.2166,177.2523,94.6495,265.4654,-0.00017164,-3.017e-05,0.0,0 STARLINK-4271,1 53012U 22076AC  23264.04889909 -.00003017  00000-0 -17164-3 0  9997,2 53012  53.2166 177.2523 0001370  94.6495 265.4654 15.08823495 67359,6917.931,95.439,540.744,538.848,0.0
53012.0,STARLINK-4271,PAYLOAD,2023-09-21 02:45:48,15.08824725,0.0001354,53.2168,176.9564,88.2767,271.838,-0.000149,-2.657e-05,0.0,0 STARLINK-4271,1 53012U 22076AC  23264.11513952 -.00002657  00000-0 -14900-3 0  9991,2 53012  53.2168 176.9564 0001354  88.2767 271.8380 15.08824725 66897,6917.927,95.439,540.729,538.855,0.0
